ELFIN-A                 
1 43617U 18070E   21106.16194285  .00007479  00000-0  16282-3 0  9992
2 43617  93.0260 280.9575 0011730 234.0346 125.9824 15.44227895145179
CUBEBEL-1 (BSUSAT-1)    
1 43666U 18083E   21106.12880073  .00001510  00000-0  74979-4 0  9991
2 43666  97.4613 135.2697 0015519  33.0283  12.4088 15.19134905136551
CICERO 10               
1 43690U 18088A   21105.88494775  .00001596  00000-0  70042-4 0  9996
2 43690  85.0385 238.9233 0012357 281.5905  78.3949 15.21038654134712
IRVINE01                
1 43693U 18088D   21105.83801464  .00004371  00000-0  17304-3 0  9996
2 43693  85.0357 236.5428 0014800 253.1236 106.8385 15.25031598134895
PROXIMA I               
1 43694U 18088E   21105.86018847  .00001489  00000-0  61841-4 0  9998
2 43694  85.0330 236.7089 0016688 247.9916 111.9553 15.22766483134859
PROXIMA II              
1 43696U 18088G   21105.85836058  .00001472  00000-0  61119-4 0  9991
2 43696  85.0331 236.7178 0016741 247.9541 111.9923 15.22765188134846
FACSAT-1                
1 43721U 18096C   21106.26988321  .00002170  00000-0  80511-4 0  9999
2 43721  97.3881 183.8895 0018268 128.6185 274.3212 15.28540896132626
CENTAURI-2              
1 43722U 18096D   21105.75306175  .00003141  00000-0  11182-3 0  9990
2 43722  97.3895 184.0497 0018104 129.7482 230.5357 15.29552579132574
INNOSAT-2               
1 43738U 18096V   21106.07096332  .00004857  00000-0  15434-3 0  9993
2 43738  97.3946 187.7779 0023242 131.4510 278.9532 15.32853676132849
SIRION PATHFINDER-2     
1 43759U 18099B   21106.16761212 -.00000084  00000-0 -24009-5 0  9995
2 43759  97.6684 178.0931 0012780 249.7257 110.2590 14.95474493129171
CORVUS BC4              
1 43767U 18099K   21105.88755842  .00000362  00000-0  38325-4 0  9996
2 43767  97.6659 176.8871 0010183 255.3011 104.7082 14.94903708129086
MOVE-II                 
1 43780U 18099Y   21106.13532069  .00000893  00000-0  85054-4 0  9994
2 43780  97.6702 178.1523 0011902 260.7125  99.2751 14.95824687129153
SPACEBEE-7              
1 43816U 18099BL  21106.15563154  .00000833  00000-0  79211-4 0  9997
2 43816  97.6723 178.7367 0011837 242.8189 117.1826 14.96048494128748
SPACEBEE-5              
1 43817U 18099BM  21106.14316279  .00001693  00000-0  15145-3 0  9991
2 43817  97.6800 179.8058 0011725 239.7940 120.2121 14.97143266128781
SPACEBEE-6              
1 43818U 18099BN  21106.13474340  .00000917  00000-0  85995-4 0  9994
2 43818  97.6740 179.0479 0012026 241.9643 118.0362 14.96378059128909
SHIELDS 1               
1 43850U 18104B   21105.66089711  .00000743  00000-0  30830-4 0  9993
2 43850  85.0293 335.4974 0016407  45.9043 314.3545 15.21794542129420
STF-1                   
1 43852U 18104D   21105.71549746  .00001670  00000-0  70699-4 0  9997
2 43852  85.0332 336.1279 0016297  58.4637 301.8194 15.22224422129413
ZACUBE-2                
1 43907U 18111AH  21106.20640431  .00000734  00000-0  31961-4 0  9993
2 43907  97.2395   2.4250 0021874 149.3139   2.4307 15.25081607128142
LUME 1                  
1 43908U 18111AJ  21105.77784800  .00001406  00000-0  57101-4 0  9995
2 43908  97.2395   2.4796 0021404 149.2185 211.0314 15.26000911128110
AOBA VELOX-IV           
1 43940U 19003J   21105.92265465  .00002974  00000-0  11508-3 0  9991
2 43940  97.1848 152.3594 0021485 227.9884 131.9526 15.26750524124762
CATSAT-2                
1 44029U 98067PV  21103.18846432  .08994300  12447-4  71822-3 0  9990
2 44029  51.6303 210.8330 0006076 315.2983  44.7553 16.39157428125817
UNITE                   
1 44031U 98067PX  21105.87595221  .00034439  00000-0  24404-3 0  9990
2 44031  51.6364 227.5651 0000330  58.6806 301.4225 15.73612672125809
CATSAT-1                
1 44033U 98067PZ  21102.52173143  .03148828  12044-4  93890-3 0  9997
2 44033  51.6349 214.6392 0009094 323.2962  36.7435 16.26195910125613
RAAVANA-1               
1 44329U 98067QE  21104.62845120  .00039608  00000-0  30799-3 0  9995
2 44329  51.6347 253.0883 0003431  28.6430 331.4755 15.71343953104108
UGUISU                  
1 44330U 98067QF  21105.94399523  .00038475  00000-0  30224-3 0  9998
2 44330  51.6327 246.7958 0003498  33.8262 326.2959 15.71114764104287
NEPALISAT-1             
1 44331U 98067QG  21105.89335650  .00038159  00000-0  29623-3 0  9994
2 44331  51.6323 246.4571 0003499  34.4343 325.6881 15.71401400104294
SPOOQY-1                
1 44332U 98067QH  21105.94467478  .00037428  00000-0  29803-3 0  9993
2 44332  51.6339 246.8331 0002948  37.1262 322.9939 15.70804757104259
SPACEBEE-9              
1 44370U 19037F   21105.75617284  .00024477  00000-0  37920-3 0  9995
2 44370  45.0011 215.6695 0008422 225.0342 134.9869 15.53610395101425
SPACEBEE-8              
1 44371U 19037G   21105.64685132  .00529467  11557-3  17048-2 0  9990
2 44371  44.9942 182.4888 0013391  12.3130 347.8102 15.90004755101800
MOVE-IIB                
1 44398U 19038N   21105.90072806  .00001502  00000-0  87292-4 0  9990
2 44398  97.5768  70.2178 0024780 161.3917 198.8226 15.13408005 98309
SONATE                  
1 44400U 19038Q   21105.86208747  .00000534  00000-0  34331-4 0  9994
2 44400  97.5833  70.1005 0025128 161.5046 198.7104 15.12436867 98272
LUCKY-7                 
1 44406U 19038W   21105.88203312  .00000780  00000-0  47898-4 0  9990
2 44406  97.5838  70.3401 0024746 160.5800 199.6379 15.12811930 98280
BEESAT 9                
1 44412U 19038AC  21105.84789561  .00001156  00000-0  68732-4 0  9996
2 44412  97.5823  70.3155 0022537 165.5237 194.6644 15.13092921 97980
JAISAT-1                
1 44419U 19038F   21105.83767814  .00001153  00000-0  67705-4 0  9995
2 44419  97.5827  70.8030 0021458 163.7458 196.4466 15.13577149 98325
KRAKSAT                 
1 44427U 98067QM  21105.91123932  .00021700  00000-0  22569-3 0  9997
2 44427  51.6387 257.8525 0002477   0.5478  84.1465 15.64526491101677
VCC A                   
1 44428U 98067QN  21105.88266212  .00037081  00000-0  30780-3 0  9996
2 44428  51.6363 250.2919 0002482 351.6861   8.4094 15.69808671101774
ENTRYSAT                
1 44429U 98067QP  21105.58063316  .00077055  00000-0  49195-3 0  9999
2 44429  51.6317 245.1279 0003289 335.9156  24.1690 15.75671487101816
VCC C                   
1 44430U 98067QQ  21105.88232302  .00190366  24375-4  61342-3 0  9991
2 44430  51.6258 233.5371 0007296 326.0444  34.0094 15.90490527100817
VCC B                   
1 44431U 98067QR  21105.85572110  .00037661  00000-0  30772-3 0  9999
2 44431  51.6334 250.0347 0002638 352.4599   7.6358 15.70182070101717
DUCHIFAT-3              
1 44854U 19089C   21106.06520757  .00000490  00000-0  45605-4 0  9991
2 44854  36.9637 109.5650 0008731 348.2606  11.7947 14.99419233 73739
EYESAT-NANO             
1 44877U 19092E   21106.25557331  .00001479  00000-0  76348-4 0  9995
2 44877  97.4602 290.7871 0014422  50.8959 309.3555 15.17791851 73503
ORBITAL FACTORY 2 (OF-2)
1 45113U 19071C   21105.86338825  .00003449  00000-0  10997-3 0  9993
2 45113  51.6429 340.8910 0012705  69.3580 290.8764 15.35292851 67554
M2 PATHFINDER           
1 45727U 20037E   21105.95354487 -.00000264  00000-0 -20880-4 0  9997
2 45727  97.7096 285.1353 0013721  19.9447 340.2324 14.91349126 43106
NETSAT-4                
1 46504U 20068U   21105.88142764  .00000374  00000-0  33137-4 0  9999
2 46504  97.6884  43.2786 0009577 346.3413  13.7552 15.02058670 29845
NETSAT-3                
1 46505U 20068V   21105.81996367  .00000477  00000-0  40956-4 0  9990
2 46505  97.6878  43.1938 0008244 348.2932  11.8099 15.02020275 29849
NETSAT-1                
1 46506U 20068W   21105.89174430  .00000654  00000-0  54564-4 0  9995
2 46506  97.6867  43.2416 0006421 345.7023  14.3997 15.01985869 29852
NETSAT-2                
1 46507U 20068X   21105.82774116  .00000765  00000-0  63064-4 0  9994
2 46507  97.6853  43.1763 0006106 342.9555  17.1462 15.01961878 29796
SPOC                    
1 46921U 98067RR  21105.94490247  .00008058  00000-0  13333-3 0  9997
2 46921  51.6421 287.4822 0002169 195.9366 164.1556 15.53164149 25131
BOBCAT-1                
1 46922U 98067RS  21105.76045725  .00016905  00000-0  26013-3 0  9994
2 46922  51.6431 287.7610 0001965 202.6579 157.4325 15.54331893 25082
NEUTRON-1               
1 46923U 98067RT  21105.76244738  .00011112  00000-0  18177-3 0  9997
2 46923  51.6422 288.5117 0001990 208.9694 151.1186 15.53046198 25142
1998-067RU              
1 46924U 98067RU  21105.91733118  .00020758  00000-0  29241-3 0  9990
2 46924  51.6400 285.7935 0002114 247.9601 112.1166 15.56592279 25162
DESCENT                 
1 46927U 98067RX  21105.89515707  .00008369  00000-0  13887-3 0  9995
2 46927  51.6419 287.8958 0002003 232.9868 127.0940 15.53025412 25071
SAI-1 NANOCONNECT-2     
1 47701U 21015C   21105.78425972 -.00000071  00000-0  00000-0 0  9990
2 47701  97.4587 180.7884 0013320 151.3486 208.8535 15.22409978  7087
WARP-01                 
1 47924U 98067SA  21105.93608672  .00010026  00000-0  18198-3 0  9995
2 47924  51.6423 290.4062 0005037 230.1707 129.8839 15.50221413  5095
RSP-01                  
1 47925U 98067SB  21105.80447031  .00011771  00000-0  21170-3 0  9994
2 47925  51.6430 291.0294 0002593 159.5711 200.5382 15.50298060  5059
TAUSAT-1                
1 47926U 98067SC  21105.92741096  .00011290  00000-0  20080-3 0  9991
2 47926  51.6427 290.3506 0003852 163.5016 196.6100 15.50659922  5068
TSURU                   
1 47927U 98067SD  21105.80472612  .00010793  00000-0  19504-3 0  9990
2 47927  51.6427 291.0310 0002638 156.8537 203.2571 15.50260409  5058
STARS-EC                
1 47928U 98067SE  21105.80572801  .00009682  00000-0  17616-3 0  9999
2 47928  51.6426 291.0357 0005802 235.9691 124.0748 15.50194160  5039
MAYA-2                  
1 47929U 98067SF  21105.80404120  .00010651  00000-0  19237-3 0  9997
2 47929  51.6429 291.0265 0002746 154.5114 205.6011 15.50291849  5010
